{
  "type": "FeatureCollection",
  "features": [
    {
      "type": "Feature",
      "properties": {
        "norad_id": 38867,
        "name": "INTELSAT 23 (IS-23)",
        "group": "intelsat",
        "lat": 0.029160643715850157,
        "lon": 91.71413231082347,
        "alt_km": 35788.815262827644,
        "timestamp": "2025-12-20T03:42:47.059903+00:00",
        "meta_object_name": "INTELSAT 23 (IS-23)",
        "meta_object_id": "2012-057A",
        "meta_epoch": "2025-12-19T18:08:46.360896",
        "meta_mean_motion": 1.00270282,
        "meta_eccentricity": 5.78e-05,
        "meta_inclination": 0.0148,
        "meta_ra_of_asc_node": 49.4556,
        "meta_arg_of_pericenter": 244.3667,
        "meta_mean_anomaly": 14.0058,
        "meta_ephemeris_type": 0,
        "meta_classification_type": "U",
        "meta_norad_cat_id": 38867,
        "meta_element_set_no": 999,
        "meta_rev_at_epoch": 4815,
        "meta_bstar": 0,
        "meta_mean_motion_dot": -2.6e-06,
        "meta_mean_motion_ddot": 0,
        "tle_line1": "1 38867U 12057A   25353.75609214 -.00000260  00000+0  00000+0 0  9996",
        "tle_line2": "2 38867   0.0148  49.4556 0000578 244.3667  14.0058  1.00270282 48150"
      },
      "geometry": {
        "type": "Point",
        "coordinates": [
          91.71413231082347,
          0.029160643715850157
        ]
      }
    },
    {
      "type": "Feature",
      "properties": {
        "norad_id": 39360,
        "name": "FM-6",
        "group": "intelsat",
        "lat": 0.0012839275421821267,
        "lon": 28.49250930948657,
        "alt_km": 35797.82474560287,
        "timestamp": "2025-12-20T03:42:47.059914+00:00",
        "meta_object_name": "FM-6",
        "meta_object_id": "2013-058A",
        "meta_epoch": "2025-12-19T11:11:49.081920",
        "meta_mean_motion": 1.00267591,
        "meta_eccentricity": 0.0003051,
        "meta_inclination": 0.0115,
        "meta_ra_of_asc_node": 64.9452,
        "meta_arg_of_pericenter": 109.4337,
        "meta_mean_anomaly": 325.7334,
        "meta_ephemeris_type": 0,
        "meta_classification_type": "U",
        "meta_norad_cat_id": 39360,
        "meta_element_set_no": 999,
        "meta_rev_at_epoch": 4427,
        "meta_bstar": 0,
        "meta_mean_motion_dot": 8e-08,
        "meta_mean_motion_ddot": 0,
        "tle_line1": "1 39360U 13058A   25353.46654030  .00000008  00000+0  00000+0 0  9990",
        "tle_line2": "2 39360   0.0115  64.9452 0003051 109.4337 325.7334  1.00267591 44271"
      },
      "geometry": {
        "type": "Point",
        "coordinates": [
          28.49250930948657,
          0.0012839275421821267
        ]
      }
    },
    {
      "type": "Feature",
      "properties": {
        "norad_id": 40271,
        "name": "INTELSAT 30 (IS-30)",
        "group": "intelsat",
        "lat": 0.023373706482496936,
        "lon": 49.61310404504244,
        "alt_km": 35781.29009303113,
        "timestamp": "2025-12-20T03:42:47.059926+00:00",
        "meta_object_name": "INTELSAT 30 (IS-30)",
        "meta_object_id": "2014-062A",
        "meta_epoch": "2025-12-19T19:39:22.686048",
        "meta_mean_motion": 1.00270758,
        "meta_eccentricity": 0.0001633,
        "meta_inclination": 0.0146,
        "meta_ra_of_asc_node": 25.4584,
        "meta_arg_of_pericenter": 66.8545,
        "meta_mean_anomaly": 196.1418,
        "meta_ephemeris_type": 0,
        "meta_classification_type": "U",
        "meta_norad_cat_id": 40271,
        "meta_element_set_no": 999,
        "meta_rev_at_epoch": 499,
        "meta_bstar": 0,
        "meta_mean_motion_dot": -1.26e-06,
        "meta_mean_motion_ddot": 0,
        "tle_line1": "1 40271U 14062A   25353.81901257 -.00000126  00000+0  00000+0 0  9996",
        "tle_line2": "2 40271   0.0146  25.4584 0001633  66.8545 196.1418  1.00270758  4994"
      },
      "geometry": {
        "type": "Point",
        "coordinates": [
          49.61310404504244,
          0.023373706482496936
        ]
      }
    },
    {
      "type": "Feature",
      "properties": {
        "norad_id": 40333,
        "name": "DIRECTV 14",
        "group": "intelsat",
        "lat": 0.03890211039656416,
        "lon": 45.45960574840007,
        "alt_km": 35786.40756281862,
        "timestamp": "2025-12-20T03:42:47.059938+00:00",
        "meta_object_name": "DIRECTV 14",
        "meta_object_id": "2014-078B",
        "meta_epoch": "2025-12-19T16:13:00.599232",
        "meta_mean_motion": 1.00271466,
        "meta_eccentricity": 3.91e-05,
        "meta_inclination": 0.0182,
        "meta_ra_of_asc_node": 338.4669,
        "meta_arg_of_pericenter": 165.2369,
        "meta_mean_anomaly": 88.8552,
        "meta_ephemeris_type": 0,
        "meta_classification_type": "U",
        "meta_norad_cat_id": 40333,
        "meta_element_set_no": 999,
        "meta_rev_at_epoch": 4024,
        "meta_bstar": 0,
        "meta_mean_motion_dot": -1.01e-06,
        "meta_mean_motion_ddot": 0,
        "tle_line1": "1 40333U 14078B   25353.67570138 -.00000101  00000+0  00000+0 0  9999",
        "tle_line2": "2 40333   0.0182 338.4669 0000391 165.2369  88.8552  1.00271466 40243"
      },
      "geometry": {
        "type": "Point",
        "coordinates": [
          45.45960574840007,
          0.03890211039656416
        ]
      }
    },
    {
      "type": "Feature",
      "properties": {
        "norad_id": 40663,
        "name": "DIRECTV 15",
        "group": "intelsat",
        "lat": 0.03675328176800075,
        "lon": 41.807047499397584,
        "alt_km": 35785.95396487861,
        "timestamp": "2025-12-20T03:42:47.059953+00:00",
        "meta_object_name": "DIRECTV 15",
        "meta_object_id": "2015-026A",
        "meta_epoch": "2025-12-19T19:37:07.901184",
        "meta_mean_motion": 1.00271591,
        "meta_eccentricity": 2.08e-05,
        "meta_inclination": 0.0174,
        "meta_ra_of_asc_node": 339.1795,
        "meta_arg_of_pericenter": 140.8553,
        "meta_mean_anomaly": 160.0394,
        "meta_ephemeris_type": 0,
        "meta_classification_type": "U",
        "meta_norad_cat_id": 40663,
        "meta_element_set_no": 999,
        "meta_rev_at_epoch": 3866,
        "meta_bstar": 0,
        "meta_mean_motion_dot": -7.8e-07,
        "meta_mean_motion_ddot": 0,
        "tle_line1": "1 40663U 15026A   25353.81745256 -.00000078  00000+0  00000+0 0  9993",
        "tle_line2": "2 40663   0.0174 339.1795 0000208 140.8553 160.0394  1.00271591 38668"
      },
      "geometry": {
        "type": "Point",
        "coordinates": [
          41.807047499397584,
          0.03675328176800075
        ]
      }
    },
    {
      "type": "Feature",
      "properties": {
        "norad_id": 40664,
        "name": "SKY MEXICO-1",
        "group": "intelsat",
        "lat": 0.033899209310311255,
        "lon": 65.93515336227578,
        "alt_km": 35793.6777319927,
        "timestamp": "2025-12-20T03:42:47.059964+00:00",
        "meta_object_name": "SKY MEXICO-1",
        "meta_object_id": "2015-026B",
        "meta_epoch": "2025-12-19T09:43:10.843104",
        "meta_mean_motion": 1.00272289,
        "meta_eccentricity": 0.000231,
        "meta_inclination": 0.0116,
        "meta_ra_of_asc_node": 321.764,
        "meta_arg_of_pericenter": 322.6243,
        "meta_mean_anomaly": 230.8994,
        "meta_ephemeris_type": 0,
        "meta_classification_type": "U",
        "meta_norad_cat_id": 40664,
        "meta_element_set_no": 999,
        "meta_rev_at_epoch": 3865,
        "meta_bstar": 0,
        "meta_mean_motion_dot": -2.1e-06,
        "meta_mean_motion_ddot": 0,
        "tle_line1": "1 40664U 15026B   25353.40498661 -.00000210  00000+0  00000+0 0  9992",
        "tle_line2": "2 40664   0.0116 321.7640 0002310 322.6243 230.8994  1.00272289 38659"
      },
      "geometry": {
        "type": "Point",
        "coordinates": [
          65.93515336227578,
          0.033899209310311255
        ]
      }
    },
    {
      "type": "Feature",
      "properties": {
        "norad_id": 40874,
        "name": "INTELSAT 34 (IS-34)",
        "group": "intelsat",
        "lat": 0.0403061881862312,
        "lon": 89.16658996563396,
        "alt_km": 35784.87932768183,
        "timestamp": "2025-12-20T03:42:47.059976+00:00",
        "meta_object_name": "INTELSAT 34 (IS-34)",
        "meta_object_id": "2015-039A",
        "meta_epoch": "2025-12-19T11:17:13.926048",
        "meta_mean_motion": 1.00271344,
        "meta_eccentricity": 7.39e-05,
        "meta_inclination": 0.0152,
        "meta_ra_of_asc_node": 339.5057,
        "meta_arg_of_pericenter": 173.0812,
        "meta_mean_anomaly": 49.536,
        "meta_ephemeris_type": 0,
        "meta_classification_type": "U",
        "meta_norad_cat_id": 40874,
        "meta_element_set_no": 999,
        "meta_rev_at_epoch": 3782,
        "meta_bstar": 0,
        "meta_mean_motion_dot": -2.61e-06,
        "meta_mean_motion_ddot": 0,
        "tle_line1": "1 40874U 15039A   25353.47030007 -.00000261  00000+0  00000+0 0  9998",
        "tle_line2": "2 40874   0.0152 339.5057 0000739 173.0812  49.5360  1.00271344 37825"
      },
      "geometry": {
        "type": "Point",
        "coordinates": [
          89.16658996563396,
          0.0403061881862312
        ]
      }
    }
  ]
}